{
    "links": {
        "self": "http://www.neowsapp.com/rest/v1/neo/3508158?api_key=iIulBulltgU6a56xZRHN4H3l9WmuAYTsLGpBGhQ2"
    },
    "id": "3508158",
    "neo_reference_id": "3508158",
    "name": "(2010 DY1)",
    "designation": "2010 DY1",
    "nasa_jpl_url": "http://ssd.jpl.nasa.gov/sbdb.cgi?sstr=3508158",
    "absolute_magnitude_h": 25.8,
    "estimated_diameter": {
        "kilometers": {
            "estimated_diameter_min": 0.0183888672,
            "estimated_diameter_max": 0.0411187571
        },
        "meters": {
            "estimated_diameter_min": 18.388867207,
            "estimated_diameter_max": 41.1187571041
        },
        "miles": {
            "estimated_diameter_min": 0.0114263088,
            "estimated_diameter_max": 0.0255500032
        },
        "feet": {
            "estimated_diameter_min": 60.3309310875,
            "estimated_diameter_max": 134.9040630575
        }
    },
    "is_potentially_hazardous_asteroid": false,
    "close_approach_data": [
        {
            "close_approach_date": "2010-02-20",
            "close_approach_date_full": "2010-Feb-20 10:15",
            "epoch_date_close_approach": 1266660900000,
            "relative_velocity": {
                "kilometers_per_second": "8.3477210166",
                "kilometers_per_hour": "30051.7956597432",
                "miles_per_hour": "18673.0171420221"
            },
            "miss_distance": {
                "astronomical": "0.035632565",
                "lunar": "13.861067785",
                "kilometers": "5330555.82663655",
                "miles": "3312253.79942239"
            },
            "orbiting_body": "Earth"
        }
    ],
    "orbital_data": {
        "orbit_id": "7",
        "orbit_determination_date": "2017-04-06 08:58:16",
        "first_observation_date": "2010-02-19",
        "last_observation_date": "2010-02-20",
        "data_arc_in_days": 1,
        "observations_used": 24,
        "orbit_uncertainty": "8",
        "minimum_orbit_intersection": ".0354286",
        "jupiter_tisserand_invariant": "3.334",
        "epoch_osculation": "2455247.5",
        "eccentricity": ".5619660638563324",
        "semi_major_axis": "2.323395449564676",
        "inclination": "8.045711865470819",
        "ascending_node_longitude": "144.8716357387172",
        "orbital_period": "1293.54972668022",
        "perihelion_distance": "1.017726053991101",
        "perihelion_argument": "13.51896167041402",
        "aphelion_distance": "3.629064845138251",
        "perihelion_time": "2455253.766515623004",
        "mean_anomaly": "358.256003941904",
        "mean_motion": ".2783039511932083",
        "equinox": "J2000",
        "orbit_class": {
            "orbit_class_type": "AMO",
            "orbit_class_description": "Near-Earth asteroid orbits similar to that of 1221 Amor",
            "orbit_class_range": "1.017 AU < q (perihelion) < 1.3 AU"
        }
    },
    "is_sentry_object": false
}